DELTA 1 R/B             
1 20323U 89089B   25312.14922242  .00000544  00000+0  14322-3 0  9990
2 20323  97.0786 173.8638 0070053 145.5845 214.9920 14.50527492878113
ARIANE 40 R/B           
1 20443U 90005H   25312.13046961  .00000498  00000+0  17243-3 0  9990
2 20443  98.3291  11.2788 0009686 204.5260 155.5469 14.39756543875318
DELTA 2 R/B(1)          
1 20453U 90008B   25311.95326509  .00042800  00000+0  74997-3 0  9994
2 20453  35.6075 244.6174 0118558 222.1605 136.9958 15.41979629907253
COSMOS 2058             
1 20465U 90010A   25312.10624351  .00004850  00000+0  29592-3 0  9998
2 20465  82.4662 167.1006 0011427  36.6971 323.5039 15.10068274923884
SL-14 R/B               
1 20466U 90010B   25312.14251310  .00000702  00000+0  82418-4 0  9993
2 20466  82.5051  21.5349 0019361 344.7891  15.2739 14.83422794910462
SL-14 R/B               
1 20511U 90018B   25312.11096235  .00000598  00000+0  72252-4 0  9990
2 20511  82.5211 336.7352 0017628 128.9903 231.2884 14.81996144904575
HST                     
1 20580U 90037B   25311.64659943  .00009254  00000+0  32743-3 0  9993
2 20580  28.4657 151.2306 0001575 189.0380 171.0187 15.27362982754628
SL-16 R/B               
1 20625U 90046B   25312.10645465 -.00000165  00000+0 -60401-4 0  9996
2 20625  70.9984 193.2538 0012322 136.4706 223.7391 14.14991832831193
COSMOS 2084             
1 20663U 90055A   25311.94797259  .00004733  00000+0  34363-3 0  9998
2 20663  62.7923  30.5139 0037446 170.6541 189.5265 15.04702076917990
SL-6 R/B(2)             
1 20666U 90055D   25312.10333559  .00003623  00000+0  28346-3 0  9990
2 20666  62.7840 307.0822 0010735 278.8802  81.1081 15.02813377919917
SL-8 R/B                
1 20775U 90078B   25312.16379432  .00018958  00000+0  58514-3 0  9999
2 20775  82.9070   0.2049 0382056  61.5310 302.3833 14.84063936791243
SL-8 R/B                
1 21088U 91006B   25312.16567904  .00000159  00000+0  14422-3 0  9996
2 21088  82.9407 260.4307 0023055  19.1041 352.8818 13.77482510747342
