CCSDS_OMM_VERS = 2.0
CREATION_DATE  = 
ORIGINATOR     = 

OBJECT_NAME    = DELTA 1 R/B
OBJECT_ID      = 1989-089B
CENTER_NAME    = EARTH
REF_FRAME      = TEME
TIME_SYSTEM    = UTC
MEAN_ELEMENT_THEORY = SGP/SGP4

EPOCH          = 2025-11-08T03:34:52.817088
MEAN_MOTION    = 14.50527492
ECCENTRICITY   = .0070053
INCLINATION    = 97.0786
RA_OF_ASC_NODE = 173.8638
ARG_OF_PERICENTER = 145.5845
MEAN_ANOMALY   = 214.9920

EPHEMERIS_TYPE = 0
CLASSIFICATION_TYPE = U
NORAD_CAT_ID   = 20323
ELEMENT_SET_NO = 999
REV_AT_EPOCH   = 87811
BSTAR          = .14322E-3
MEAN_MOTION_DOT = .544E-5
MEAN_MOTION_DDOT = 0

CCSDS_OMM_VERS = 2.0
CREATION_DATE  = 
ORIGINATOR     = 

OBJECT_NAME    = ARIANE 40 R/B
OBJECT_ID      = 1990-005H
CENTER_NAME    = EARTH
REF_FRAME      = TEME
TIME_SYSTEM    = UTC
MEAN_ELEMENT_THEORY = SGP/SGP4

EPOCH          = 2025-11-08T03:07:52.574304
MEAN_MOTION    = 14.39756543
ECCENTRICITY   = .0009686
INCLINATION    = 98.3291
RA_OF_ASC_NODE = 11.2788
ARG_OF_PERICENTER = 204.5260
MEAN_ANOMALY   = 155.5469

EPHEMERIS_TYPE = 0
CLASSIFICATION_TYPE = U
NORAD_CAT_ID   = 20443
ELEMENT_SET_NO = 999
REV_AT_EPOCH   = 87531
BSTAR          = .17243E-3
MEAN_MOTION_DOT = .498E-5
MEAN_MOTION_DDOT = 0

CCSDS_OMM_VERS = 2.0
CREATION_DATE  = 
ORIGINATOR     = 

OBJECT_NAME    = DELTA 2 R/B(1)
OBJECT_ID      = 1990-008B
CENTER_NAME    = EARTH
REF_FRAME      = TEME
TIME_SYSTEM    = UTC
MEAN_ELEMENT_THEORY = SGP/SGP4

EPOCH          = 2025-11-07T22:52:42.103776
MEAN_MOTION    = 15.41979629
ECCENTRICITY   = .0118558
INCLINATION    = 35.6075
RA_OF_ASC_NODE = 244.6174
ARG_OF_PERICENTER = 222.1605
MEAN_ANOMALY   = 136.9958

EPHEMERIS_TYPE = 0
CLASSIFICATION_TYPE = U
NORAD_CAT_ID   = 20453
ELEMENT_SET_NO = 999
REV_AT_EPOCH   = 90725
BSTAR          = .74997E-3
MEAN_MOTION_DOT = .428E-3
MEAN_MOTION_DDOT = 0

CCSDS_OMM_VERS = 2.0
CREATION_DATE  = 
ORIGINATOR     = 

OBJECT_NAME    = COSMOS 2058
OBJECT_ID      = 1990-010A
CENTER_NAME    = EARTH
REF_FRAME      = TEME
TIME_SYSTEM    = UTC
MEAN_ELEMENT_THEORY = SGP/SGP4

EPOCH          = 2025-11-08T02:32:59.439264
MEAN_MOTION    = 15.10068274
ECCENTRICITY   = .0011427
INCLINATION    = 82.4662
RA_OF_ASC_NODE = 167.1006
ARG_OF_PERICENTER = 36.6971
MEAN_ANOMALY   = 323.5039

EPHEMERIS_TYPE = 0
CLASSIFICATION_TYPE = U
NORAD_CAT_ID   = 20465
ELEMENT_SET_NO = 999
REV_AT_EPOCH   = 92388
BSTAR          = .29592E-3
MEAN_MOTION_DOT = .485E-4
MEAN_MOTION_DDOT = 0

CCSDS_OMM_VERS = 2.0
CREATION_DATE  = 
ORIGINATOR     = 

OBJECT_NAME    = SL-14 R/B
OBJECT_ID      = 1990-010B
CENTER_NAME    = EARTH
REF_FRAME      = TEME
TIME_SYSTEM    = UTC
MEAN_ELEMENT_THEORY = SGP/SGP4

EPOCH          = 2025-11-08T03:25:13.131840
MEAN_MOTION    = 14.83422794
ECCENTRICITY   = .0019361
INCLINATION    = 82.5051
RA_OF_ASC_NODE = 21.5349
ARG_OF_PERICENTER = 344.7891
MEAN_ANOMALY   = 15.2739

EPHEMERIS_TYPE = 0
CLASSIFICATION_TYPE = U
NORAD_CAT_ID   = 20466
ELEMENT_SET_NO = 999
REV_AT_EPOCH   = 91046
BSTAR          = .82418E-4
MEAN_MOTION_DOT = .702E-5
MEAN_MOTION_DDOT = 0

CCSDS_OMM_VERS = 2.0
CREATION_DATE  = 
ORIGINATOR     = 

OBJECT_NAME    = SL-14 R/B
OBJECT_ID      = 1990-018B
CENTER_NAME    = EARTH
REF_FRAME      = TEME
TIME_SYSTEM    = UTC
MEAN_ELEMENT_THEORY = SGP/SGP4

EPOCH          = 2025-11-08T02:39:47.147040
MEAN_MOTION    = 14.81996144
ECCENTRICITY   = .0017628
INCLINATION    = 82.5211
RA_OF_ASC_NODE = 336.7352
ARG_OF_PERICENTER = 128.9903
MEAN_ANOMALY   = 231.2884

EPHEMERIS_TYPE = 0
CLASSIFICATION_TYPE = U
NORAD_CAT_ID   = 20511
ELEMENT_SET_NO = 999
REV_AT_EPOCH   = 90457
BSTAR          = .72252E-4
MEAN_MOTION_DOT = .598E-5
MEAN_MOTION_DDOT = 0

CCSDS_OMM_VERS = 2.0
CREATION_DATE  = 
ORIGINATOR     = 

OBJECT_NAME    = HST
OBJECT_ID      = 1990-037B
CENTER_NAME    = EARTH
REF_FRAME      = TEME
TIME_SYSTEM    = UTC
MEAN_ELEMENT_THEORY = SGP/SGP4

EPOCH          = 2025-11-07T15:31:06.190752
MEAN_MOTION    = 15.27362982
ECCENTRICITY   = .0001575
INCLINATION    = 28.4657
RA_OF_ASC_NODE = 151.2306
ARG_OF_PERICENTER = 189.0380
MEAN_ANOMALY   = 171.0187

EPHEMERIS_TYPE = 0
CLASSIFICATION_TYPE = U
NORAD_CAT_ID   = 20580
ELEMENT_SET_NO = 999
REV_AT_EPOCH   = 75462
BSTAR          = .32743E-3
MEAN_MOTION_DOT = .9254E-4
MEAN_MOTION_DDOT = 0

CCSDS_OMM_VERS = 2.0
CREATION_DATE  = 
ORIGINATOR     = 

OBJECT_NAME    = SL-16 R/B
OBJECT_ID      = 1990-046B
CENTER_NAME    = EARTH
REF_FRAME      = TEME
TIME_SYSTEM    = UTC
MEAN_ELEMENT_THEORY = SGP/SGP4

EPOCH          = 2025-11-08T02:33:17.681760
MEAN_MOTION    = 14.14991832
ECCENTRICITY   = .0012322
INCLINATION    = 70.9984
RA_OF_ASC_NODE = 193.2538
ARG_OF_PERICENTER = 136.4706
MEAN_ANOMALY   = 223.7391

EPHEMERIS_TYPE = 0
CLASSIFICATION_TYPE = U
NORAD_CAT_ID   = 20625
ELEMENT_SET_NO = 999
REV_AT_EPOCH   = 83119
BSTAR          = -.60401E-4
MEAN_MOTION_DOT = -.165E-5
MEAN_MOTION_DDOT = 0

CCSDS_OMM_VERS = 2.0
CREATION_DATE  = 
ORIGINATOR     = 

OBJECT_NAME    = COSMOS 2084
OBJECT_ID      = 1990-055A
CENTER_NAME    = EARTH
REF_FRAME      = TEME
TIME_SYSTEM    = UTC
MEAN_ELEMENT_THEORY = SGP/SGP4

EPOCH          = 2025-11-07T22:45:04.831776
MEAN_MOTION    = 15.04702076
ECCENTRICITY   = .0037446
INCLINATION    = 62.7923
RA_OF_ASC_NODE = 30.5139
ARG_OF_PERICENTER = 170.6541
MEAN_ANOMALY   = 189.5265

EPHEMERIS_TYPE = 0
CLASSIFICATION_TYPE = U
NORAD_CAT_ID   = 20663
ELEMENT_SET_NO = 999
REV_AT_EPOCH   = 91799
BSTAR          = .34363E-3
MEAN_MOTION_DOT = .4733E-4
MEAN_MOTION_DDOT = 0

CCSDS_OMM_VERS = 2.0
CREATION_DATE  = 
ORIGINATOR     = 

OBJECT_NAME    = SL-6 R/B(2)
OBJECT_ID      = 1990-055D
CENTER_NAME    = EARTH
REF_FRAME      = TEME
TIME_SYSTEM    = UTC
MEAN_ELEMENT_THEORY = SGP/SGP4

EPOCH          = 2025-11-08T02:28:48.194976
MEAN_MOTION    = 15.02813377
ECCENTRICITY   = .0010735
INCLINATION    = 62.7840
RA_OF_ASC_NODE = 307.0822
ARG_OF_PERICENTER = 278.8802
MEAN_ANOMALY   = 81.1081

EPHEMERIS_TYPE = 0
CLASSIFICATION_TYPE = U
NORAD_CAT_ID   = 20666
ELEMENT_SET_NO = 999
REV_AT_EPOCH   = 91991
BSTAR          = .28346E-3
MEAN_MOTION_DOT = .3623E-4
MEAN_MOTION_DDOT = 0

CCSDS_OMM_VERS = 2.0
CREATION_DATE  = 
ORIGINATOR     = 

OBJECT_NAME    = SL-8 R/B
OBJECT_ID      = 1990-078B
CENTER_NAME    = EARTH
REF_FRAME      = TEME
TIME_SYSTEM    = UTC
MEAN_ELEMENT_THEORY = SGP/SGP4

EPOCH          = 2025-11-08T03:55:51.829248
MEAN_MOTION    = 14.84063936
ECCENTRICITY   = .0382056
INCLINATION    = 82.9070
RA_OF_ASC_NODE = 0.2049
ARG_OF_PERICENTER = 61.5310
MEAN_ANOMALY   = 302.3833

EPHEMERIS_TYPE = 0
CLASSIFICATION_TYPE = U
NORAD_CAT_ID   = 20775
ELEMENT_SET_NO = 999
REV_AT_EPOCH   = 79124
BSTAR          = .58514E-3
MEAN_MOTION_DOT = .18958E-3
MEAN_MOTION_DDOT = 0

CCSDS_OMM_VERS = 2.0
CREATION_DATE  = 
ORIGINATOR     = 

OBJECT_NAME    = SL-8 R/B
OBJECT_ID      = 1991-006B
CENTER_NAME    = EARTH
REF_FRAME      = TEME
TIME_SYSTEM    = UTC
MEAN_ELEMENT_THEORY = SGP/SGP4

EPOCH          = 2025-11-08T03:58:34.669056
MEAN_MOTION    = 13.77482510
ECCENTRICITY   = .0023055
INCLINATION    = 82.9407
RA_OF_ASC_NODE = 260.4307
ARG_OF_PERICENTER = 19.1041
MEAN_ANOMALY   = 352.8818

EPHEMERIS_TYPE = 0
CLASSIFICATION_TYPE = U
NORAD_CAT_ID   = 21088
ELEMENT_SET_NO = 999
REV_AT_EPOCH   = 74734
BSTAR          = .14422E-3
MEAN_MOTION_DOT = .159E-5
MEAN_MOTION_DDOT = 0

